NORAD_CAT_ID,OBJECT_NAME,OBJECT_TYPE,EPOCH,MEAN_MOTION,ECCENTRICITY,INCLINATION,RA_OF_ASC_NODE,ARG_OF_PERICENTER,MEAN_ANOMALY,BSTAR,MEAN_MOTION_DOT,MEAN_MOTION_DDOT,TLE_LINE0,TLE_LINE1,TLE_LINE2,SEMIMAJOR_AXIS,PERIOD,APOGEE,PERIGEE,DECAYED
50849.0,STARLINK-3311,PAYLOAD,2022-02-26 22:00:00,15.43585842,0.0001828,53.2173,309.1713,33.0271,49.0752,-0.015602,-0.00663013,0.0,0 STARLINK-3311,1 50849U 22001AY  22057.91667824 -.00663013  00000-0 -15602-1 0  9996,2 50849  53.2173 309.1713 0001828  33.0271  49.0752 15.43585842  3676,6813.6730000000025,93.289,436.784,434.293,0.0
50849.0,STARLINK-3311,PAYLOAD,2022-02-27 14:00:01,15.42652881,0.0001694,53.2172,306.016,42.6991,144.9626,-0.016114,-0.00663413,0.0,0 STARLINK-3311,1 50849U 22001AY  22058.58334491 -.00663413  00000-0 -16114-1 0  9994,2 50849  53.2172 306.0160 0001694  42.6991 144.9626 15.42652881  9334,6816.42,93.346,439.44,437.131,0.0
50849.0,STARLINK-3311,PAYLOAD,2022-02-27 22:00:00,15.42183842,0.000193,53.2175,304.4427,37.0954,202.5044,-0.0162539999999999,-0.00659031,0.0,0 STARLINK-3311,1 50849U 22001AY  22058.91667824 -.00659031  00000-0 -16254-1 0  9996,2 50849  53.2175 304.4427 0001930  37.0954 202.5044 15.42183842  3688,6817.802,93.374,440.983,438.352,0.0
50849.0,STARLINK-3311,PAYLOAD,2022-02-28 14:00:01,15.41250507,0.00015,53.2174,301.2942,42.1682,299.6274,-0.0167669999999999,-0.00658823,0.0,0 STARLINK-3311,1 50849U 22001AY  22059.58334491 -.00658823  00000-0 -16767-1 0  9998,2 50849  53.2174 301.2942 0001500  42.1682 299.6274 15.41250507  3675,6820.555,93.431,443.443,441.396,0.0
50849.0,STARLINK-3311,PAYLOAD,2022-02-28 22:00:00,15.40786846,0.0001965,53.2176,299.7243,28.2258,3.8239,-0.01715,-0.00663256,0.0,0 STARLINK-3311,1 50849U 22001AY  22059.91667824 -.00663256  00000-0 -17150-1 0  9997,2 50849  53.2176 299.7243 0001965  28.2258   3.8239 15.40786846  9548,6821.9230000000025,93.459,445.128,442.447,0.0
50849.0,STARLINK-3311,PAYLOAD,2022-03-01 14:00:01,15.39853168,0.0001703,53.2175,296.5824,39.543,91.3387,-0.017676,-0.00662711,0.0,0 STARLINK-3311,1 50849U 22001AY  22060.58334491 -.00662711  00000-0 -17676-1 0  9991,2 50849  53.2175 296.5824 0001703  39.5430  91.3387 15.39853168  3667,6824.68,93.515,447.707,445.383,0.0
50849.0,STARLINK-3311,PAYLOAD,2022-03-01 22:00:01,15.39385276,0.0002028,53.2174,295.0157,34.8008,144.7191,-0.017881,-0.00660322,0.0,0 STARLINK-3311,1 50849U 22001AY  22060.91668981 -.00660322  00000-0 -17881-1 0  9996,2 50849  53.2174 295.0157 0002028  34.8008 144.7191 15.39385276  9694,6826.063,93.544,449.312,446.544,0.0
50849.0,STARLINK-3311,PAYLOAD,2022-03-02 14:00:01,15.38452283,0.0001689,53.2175,291.8804,42.667,232.2566,-0.018439,-0.00660281,0.0,0 STARLINK-3311,1 50849U 22001AY  22061.58334491 -.00660281  00000-0 -18439-1 0  9990,2 50849  53.2175 291.8804 0001689  42.6670 232.2566 15.38452283  3653,6828.821999999999,93.601,451.841,449.534,0.0
50849.0,STARLINK-3311,PAYLOAD,2022-03-02 22:00:00,15.37986962,0.0001928,53.2174,290.3174,32.476,289.3386,-0.018791,-0.00662566,0.0,0 STARLINK-3311,1 50849U 22001AY  22061.91667824 -.00662566  00000-0 -18791-1 0  9995,2 50849  53.2174 290.3174 0001928  32.4760 289.3386 15.37986962  3679,6830.2,93.629,453.382,450.74800000000016,0.0
50849.0,STARLINK-3311,PAYLOAD,2022-03-03 06:00:00,15.37520565,0.0001401,53.2173,288.7529,47.0016,321.1451,-0.019084,-0.00662642,0.0,0 STARLINK-3311,1 50849U 22001AY  22062.25001157 -.00662642  00000-0 -19084-1 0  9995,2 50849  53.2173 288.7529 0001401  47.0016 321.1451 15.37520565  9908,6831.581,93.657,454.403,452.489,0.0
50849.0,STARLINK-3311,PAYLOAD,2022-03-03 14:00:01,15.37052146,0.0001668,53.2174,287.1886,37.4486,16.4707,-0.019272,-0.00659319,0.0,0 STARLINK-3311,1 50849U 22001AY  22062.58334491 -.00659319  00000-0 -19272-1 0  9997,2 50849  53.2174 287.1886 0001668  37.4486  16.4707 15.37052146  3678,6832.969,93.686,455.974,453.694,0.0
50849.0,STARLINK-3311,PAYLOAD,2022-03-03 22:00:00,15.36587999,0.0002028,53.2173,285.629,30.6816,68.4463,-0.0197,-0.00663609,0.0,0 STARLINK-3311,1 50849U 22001AY  22062.91667824 -.00663609  00000-0 -19700-1 0  9996,2 50849  53.2173 285.6290 0002028  30.6816  68.4463 15.36587999  3665,6834.345,93.714,457.596,454.824,0.0
50849.0,STARLINK-3311,PAYLOAD,2022-03-04 06:00:02,15.36119873,0.0001584,53.2172,284.0675,47.2437,96.5994,-0.019906,-0.00660623,0.0,0 STARLINK-3311,1 50849U 22001AY  22063.25002315 -.00660623  00000-0 -19906-1 0  9993,2 50849  53.2172 284.0675 0001584  47.2437  96.5994 15.36119873 10057,6835.733,93.743,458.681,456.515,0.0
50849.0,STARLINK-3311,PAYLOAD,2022-03-04 14:00:01,15.35653828,0.0001801,53.2173,282.5067,41.3541,146.5785,-0.020216,-0.00660903,0.0,0 STARLINK-3311,1 50849U 22001AY  22063.58335648 -.00660903  00000-0 -20216-1 0  9994,2 50849  53.2173 282.5067 0001801  41.3541 146.5785 15.35653828  3664,6837.116,93.771,460.212,457.75,0.0
50849.0,STARLINK-3311,PAYLOAD,2022-03-04 22:00:00,15.35186149,0.0001948,53.2173,280.9502,38.2526,193.1443,-0.020484,-0.00659766,0.0,0 STARLINK-3311,1 50849U 22001AY  22063.91667824 -.00659766  00000-0 -20484-1 0  9997,2 50849  53.2173 280.9502 0001948  38.2526 193.1443 15.35186149  3666,6838.505,93.8,461.702,459.037,0.0
50849.0,STARLINK-3311,PAYLOAD,2022-03-05 06:00:00,15.34721848,0.0001812,53.2173,279.392,37.6289,236.7358,-0.02093,-0.0066384,0.0,0 STARLINK-3311,1 50849U 22001AY  22064.25001157 -.00663840  00000-0 -20930-1 0  9990,2 50849  53.2173 279.3920 0001812  37.6289 236.7358 15.34721848  3716,6839.884,93.828,462.98800000000006,460.509,0.0
50849.0,STARLINK-3311,PAYLOAD,2022-03-05 14:00:01,15.34252479,0.0001635,53.2175,277.8347,42.9974,273.776,-0.021043,-0.00657897,0.0,0 STARLINK-3311,1 50849U 22001AY  22064.58334491 -.00657897  00000-0 -21043-1 0  9997,2 50849  53.2175 277.8347 0001635  42.9974 273.7760 15.34252479  3646,6841.279,93.857,464.262,462.025,0.0
50849.0,STARLINK-3311,PAYLOAD,2022-03-05 16:00:00,15.34127694,0.0001929,53.217,277.4456,34.2247,23.0669,-0.020746,-0.00646877,0.0,0 STARLINK-3311,1 50849U 22001AY  22064.66667824 -.00646877  00000-0 -20746-1 0  9990,2 50849  53.2170 277.4456 0001929  34.2247  23.0669 15.34127694 10272,6841.65,93.864,464.834,462.195,0.0
50849.0,STARLINK-3311,PAYLOAD,2022-03-05 22:00:01,15.3378854,0.0001902,53.2174,276.2816,32.2941,326.3882,-0.021548,-0.00663414,0.0,0 STARLINK-3311,1 50849U 22001AY  22064.91668981 -.00663414  00000-0 -21548-1 0  9990,2 50849  53.2174 276.2816 0001902  32.2941 326.3882 15.33788540  3677,6842.658,93.885,465.825,463.222,0.0
50849.0,STARLINK-3311,PAYLOAD,2022-03-06 14:00:01,15.32852939,0.0001863,53.2175,273.1728,33.4851,47.1468,-0.022015,-0.00658329,0.0,0 STARLINK-3311,1 50849U 22001AY  22065.58334491 -.00658329  00000-0 -22015-1 0  9999,2 50849  53.2175 273.1728 0001863  33.4851  47.1468 15.32852939 10416,6845.441999999999,93.942,468.583,466.032,0.0
50849.0,STARLINK-3311,PAYLOAD,2022-03-06 22:00:00,15.32388044,0.0002002,53.2175,271.6231,32.9453,87.8498,-0.022467,-0.00661804,0.0,0 STARLINK-3311,1 50849U 22001AY  22065.91667824 -.00661804  00000-0 -22467-1 0  9998,2 50849  53.2175 271.6231 0002002  32.9453  87.8498 15.32388044  3660,6846.8269999999975,93.971,470.062,467.321,0.0
50849.0,STARLINK-3311,PAYLOAD,2022-03-07 12:00:00,15.31570359,0.0001732,53.2174,268.9078,38.1336,61.6029,-0.022983,-0.00659906,0.0,0 STARLINK-3311,1 50849U 22001AY  22066.50001157 -.00659906  00000-0 -22983-1 0  9998,2 50849  53.2174 268.9078 0001732  38.1336  61.6029 15.31570359 10551,6849.263000000001,94.021,472.315,469.942,0.0
50849.0,STARLINK-3311,PAYLOAD,2022-03-07 22:00:00,15.30986688,0.0002044,53.2176,266.9741,35.698,202.2286,-0.023351,-0.00658469,0.0,0 STARLINK-3311,1 50849U 22001AY  22066.91667824 -.00658469  00000-0 -23351-1 0  9995,2 50849  53.2176 266.9741 0002044  35.6980 202.2286 15.30986688  3636,6851.004,94.057,474.27,471.469,0.0
50849.0,STARLINK-3311,PAYLOAD,2022-03-08 14:00:01,15.300545499999998,0.0001848,53.2177,263.8786,35.0399,278.1713,-0.02408,-0.00659466,0.0,0 STARLINK-3311,1 50849U 22001AY  22067.58334491 -.00659466  00000-0 -24080-1 0  9998,2 50849  53.2177 263.8786 0001848  35.0399 278.1713 15.30054550 10720,6853.786,94.114,476.918,474.385,0.0
50849.0,STARLINK-3311,PAYLOAD,2022-03-08 22:00:00,15.29588099,0.0001933,53.2177,262.3352,31.4847,318.5267,-0.024481,-0.00660723,0.0,0 STARLINK-3311,1 50849U 22001AY  22067.91667824 -.00660723  00000-0 -24481-1 0  9997,2 50849  53.2177 262.3352 0001933  31.4847 318.5267 15.29588099  3673,6855.18,94.143,478.37,475.72,0.0
50849.0,STARLINK-3311,PAYLOAD,2022-03-09 14:00:01,15.28654388,0.0001817,53.2176,259.2465,34.3797,27.5531,-0.025141,-0.00659316,0.0,0 STARLINK-3311,1 50849U 22001AY  22068.58334491 -.00659316  00000-0 -25141-1 0  9992,2 50849  53.2176 259.2465 0001817  34.3797  27.5531 15.28654388  3652,6857.971,94.2,481.082,478.59,0.0
50849.0,STARLINK-3311,PAYLOAD,2022-03-09 16:00:00,15.28483859,0.000175,53.2172,258.8599,41.6658,119.1265,-0.022208,-0.00584334,0.0,0 STARLINK-3311,1 50849U 22001AY  22068.66667824 -.00584334  00000-0 -22208-1 0  9998,2 50849  53.2172 258.8599 0001750  41.6658 119.1265 15.28483859 10882,6858.481,94.211,481.546,479.146,0.0
50849.0,STARLINK-3311,PAYLOAD,2022-03-09 22:00:01,15.28186928,0.0001865,53.2176,257.7062,35.3426,61.7726,-0.025476,-0.00658613,0.0,0 STARLINK-3311,1 50849U 22001AY  22068.91668981 -.00658613  00000-0 -25476-1 0  9993,2 50849  53.2176 257.7062 0001865  35.3426  61.7726 15.28186928  3657,6859.369000000002,94.229,482.514,479.955,0.0
50849.0,STARLINK-3311,PAYLOAD,2022-03-10 06:00:00,15.27643095,0.0001845,53.2171,256.1628,32.8104,98.8408,-0.021465,-0.005467,0.0,0 STARLINK-3311,1 50849U 22001AY  22069.25001157 -.00546700  00000-0 -21465-1 0  9994,2 50849  53.2171 256.1628 0001845  32.8104  98.8408 15.27643095 10979,6860.996999999999,94.263,484.128,481.596,0.0
